NORAD_CAT_ID,OBJECT_NAME,OBJECT_TYPE,EPOCH,MEAN_MOTION,ECCENTRICITY,INCLINATION,RA_OF_ASC_NODE,ARG_OF_PERICENTER,MEAN_ANOMALY,BSTAR,MEAN_MOTION_DOT,MEAN_MOTION_DDOT,TLE_LINE0,TLE_LINE1,TLE_LINE2,SEMIMAJOR_AXIS,PERIOD,APOGEE,PERIGEE,DECAYED
51136.0,STARLINK-3253,PAYLOAD,2023-10-24 02:47:08,15.08854968,0.0001533,53.2171,233.8101,76.8839,283.2325,0.0011283,0.00017722,0.0,0 STARLINK-3253,1 51136U 22005AJ  23297.11607031  .00017722  00000-0  11283-2 0  9993,2 51136  53.2171 233.8101 0001533  76.8839 283.2325 15.08854968 98880,6917.835,95.437,540.76,538.639,0.0
51136.0,STARLINK-3253,PAYLOAD,2023-10-24 12:19:27,15.08852215,0.0001418,53.2169,232.0233,75.6115,284.5035,0.00060527,9.361e-05,0.0,0 STARLINK-3253,1 51136U 22005AJ  23297.51350867  .00009361  00000-0  60527-3 0  9995,2 51136  53.2169 232.0233 0001418  75.6115 284.5035 15.08852215 98942,6917.843,95.437,540.689,538.727,0.0
51136.0,STARLINK-3253,PAYLOAD,2023-10-25 05:48:41,15.08862606,0.0001489,53.217,228.7565,92.7676,267.3487,0.00085187,0.00013304,0.0,0 STARLINK-3253,1 51136U 22005AJ  23298.24214397  .00013304  00000-0  85187-3 0  9994,2 51136  53.2170 228.7565 0001489  92.7676 267.3487 15.08862606 97926,6917.811,95.436,540.706,538.646,0.0
51136.0,STARLINK-3253,PAYLOAD,2023-10-26 04:04:05,15.08845626,0.0001475,53.2177,224.5926,86.0557,274.0603,0.00032881,4.95e-05,0.0,0 STARLINK-3253,1 51136U 22005AJ  23299.16950822  .00004950  00000-0  32881-3 0  9996,2 51136  53.2177 224.5926 0001475  86.0557 274.0603 15.08845626 99196,6917.863,95.437,540.749,538.708,0.0
51136.0,STARLINK-3253,PAYLOAD,2023-10-27 03:54:51,15.08868069,0.0001417,53.2172,220.1308,94.5983,265.5171,0.0010377,0.00016278,0.0,0 STARLINK-3253,1 51136U 22005AJ  23300.16310029  .00016278  00000-0  10377-2 0  9999,2 51136  53.2172 220.1308 0001417  94.5983 265.5171 15.08868069 99348,6917.795,95.436,540.64,538.679,0.0
51136.0,STARLINK-3253,PAYLOAD,2023-10-28 00:34:53,15.08840533,0.0001426,53.2172,216.2664,80.412,279.7034,0.00041549,6.331e-05,0.0,0 STARLINK-3253,1 51136U 22005AJ  23301.02422948  .00006331  00000-0  41549-3 0  9994,2 51136  53.2172 216.2664 0001426  80.4120 279.7034 15.08840533 99471,6917.879,95.438,540.73,538.757,0.0
51136.0,STARLINK-3253,PAYLOAD,2023-10-28 11:42:35,15.08831964,0.0001542,53.2174,214.1858,81.0506,279.0661,0.00026305,3.9e-05,0.0,0 STARLINK-3253,1 51136U 22005AJ  23301.48791412  .00003900  00000-0  26305-3 0  9991,2 51136  53.2174 214.1858 0001542  81.0506 279.0661 15.08831964 99544,6917.905,95.438,540.837,538.703,0.0
51136.0,STARLINK-3253,PAYLOAD,2023-10-28 18:04:08,15.08837646,0.0001531,53.2167,212.9982,77.041,283.0753,0.00026288,3.898e-05,0.0,0 STARLINK-3253,1 51136U 22005AJ  23301.75287458  .00003898  00000-0  26288-3 0  9997,2 51136  53.2167 212.9982 0001531  77.0410 283.0753 15.08837646 98456,6917.888,95.438,540.812,538.693,0.0
51136.0,STARLINK-3253,PAYLOAD,2023-10-29 00:25:40,15.08843335,0.0001335,53.2151,211.8074,89.7957,270.3188,0.00073076,0.00011362,0.0,0 STARLINK-3253,1 51136U 22005AJ  23302.01783102  .00011362  00000-0  73076-3 0  9996,2 51136  53.2151 211.8074 0001335  89.7957 270.3188 15.08843335 99620,6917.87,95.437,540.659,538.812,0.0
51136.0,STARLINK-3253,PAYLOAD,2023-10-29 11:33:22,15.08847725,0.0001543,53.215,209.7255,86.628,273.4889,0.00054519,8.401e-05,0.0,0 STARLINK-3253,1 51136U 22005AJ  23302.48151240  .00008401  00000-0  54519-3 0  9990,2 51136  53.2150 209.7255 0001543  86.6280 273.4889 15.08847725 98563,6917.857,95.437,540.789,538.654,0.0
51136.0,STARLINK-3253,PAYLOAD,2023-10-29 17:54:55,15.08846083,0.0001877,53.2173,208.5358,92.089,268.0317,0.00035342,5.342e-05,0.0,0 STARLINK-3253,1 51136U 22005AJ  23302.74647342  .00005342  00000-0  35342-3 0  9996,2 51136  53.2173 208.5358 0001877  92.0890 268.0317 15.08846083 99739,6917.862,95.437,541.025,538.428,0.0
51136.0,STARLINK-3253,PAYLOAD,2023-10-29 22:41:04,15.08845849,0.0001641,53.2169,207.6429,96.5359,263.5819,0.00023092,3.39e-05,0.0,0 STARLINK-3253,1 51136U 22005AJ  23302.94519217  .00003390  00000-0  23092-3 0  9997,2 51136  53.2169 207.6429 0001641  96.5359 263.5819 15.08845849 98635,6917.863,95.437,540.863,538.592,0.0
51136.0,STARLINK-3253,PAYLOAD,2023-10-30 20:56:29,15.08835354,0.0001405,53.2148,203.4804,100.4412,259.6738,6.1865e-05,6.97e-06,0.0,0 STARLINK-3253,1 51136U 22005AJ  23303.87255825  .00000697  00000-0  61865-4 0  9990,2 51136  53.2148 203.4804 0001405 100.4412 259.6738 15.08835354 99903,6917.895,95.438,540.732,538.788,0.0
51136.0,STARLINK-3253,PAYLOAD,2023-10-31 22:22:39,15.08851378,0.0001236,53.2167,198.7237,89.012,271.1014,0.00075239,0.0001171,0.0,0 STARLINK-3253,1 51136U 22005AJ  23304.93240000  .00011710  00000-0  75239-3 0  9994,2 51136  53.2167 198.7237 0001236  89.0120 271.1014 15.08851378 98932,6917.846,95.437,540.566,538.856,0.0
51136.0,STARLINK-3253,PAYLOAD,2023-11-01 03:08:48,15.08860764,0.0001207,53.2168,197.8309,85.9198,274.1932,0.0009102,0.00014236,0.0,0 STARLINK-3253,1 51136U 22005AJ  23305.13111692  .00014236  00000-0  91020-3 0  9993,2 51136  53.2168 197.8309 0001207  85.9198 274.1932 15.08860764100093,6917.817,95.436,540.517,538.847,0.0
51136.0,STARLINK-3253,PAYLOAD,2023-11-01 09:30:20,15.08857476,0.0001171,53.216,196.64,78.8044,281.3079,0.00054546,8.408e-05,0.0,0 STARLINK-3253,1 51136U 22005AJ  23305.39607525  .00008408  00000-0  54546-3 0  9992,2 51136  53.2160 196.6400 0001171  78.8044 281.3079 15.08857476100138,6917.827,95.436,540.502,538.882,0.0
51136.0,STARLINK-3253,PAYLOAD,2023-11-01 20:38:02,15.08848476,0.0001531,53.2169,194.5636,101.7973,258.3191,0.00017959,2.572e-05,0.0,0 STARLINK-3253,1 51136U 22005AJ  23305.85975602  .00002572  00000-0  17959-3 0  9990,2 51136  53.2169 194.5636 0001531 101.7973 258.3191 15.08848476100209,6917.854,95.437,540.779,538.66,0.0
51136.0,STARLINK-3253,PAYLOAD,2023-11-01 22:13:26,15.08850041,0.000157,53.2169,194.2661,102.1987,257.9181,0.00024776,3.658e-05,0.0,0 STARLINK-3253,1 51136U 22005AJ  23305.92599547  .00003658  00000-0  24776-3 0  9999,2 51136  53.2169 194.2661 0001570 102.1987 257.9181 15.08850041 99085,6917.85,95.437,540.801,538.629,0.0
51136.0,STARLINK-3253,PAYLOAD,2023-11-02 09:21:07,15.08847896,0.0001339,53.2152,192.177,76.3693,283.7448,0.00042886,6.545e-05,0.0,0 STARLINK-3253,1 51136U 22005AJ  23306.38967502  .00006545  00000-0  42886-3 0  9990,2 51136  53.2152 192.1770 0001339  76.3693 283.7448 15.08847896 99159,6917.856,95.437,540.648,538.795,0.0
51136.0,STARLINK-3253,PAYLOAD,2023-11-02 20:28:50,15.08838551,0.0001619,53.2153,190.0979,85.5406,274.5771,0.00023427,3.442e-05,0.0,0 STARLINK-3253,1 51136U 22005AJ  23306.85335738  .00003442  00000-0  23427-3 0  9995,2 51136  53.2153 190.0979 0001619  85.5406 274.5771 15.08838551100353,6917.885,95.438,540.87,538.63,0.0
51136.0,STARLINK-3253,PAYLOAD,2023-11-02 22:04:13,15.08840258,0.0001481,53.2156,189.8006,86.7474,273.3688,9.8803e-05,1.285e-05,0.0,0 STARLINK-3253,1 51136U 22005AJ  23306.91959644  .00001285  00000-0  98803-4 0  9994,2 51136  53.2156 189.8006 0001481  86.7474 273.3688 15.08840258 99233,6917.88,95.438,540.769,538.72,0.0
51136.0,STARLINK-3253,PAYLOAD,2023-11-03 09:11:54,15.08845661,0.0001385,53.216,187.7207,91.5312,268.5839,0.00023747,3.494e-05,0.0,0 STARLINK-3253,1 51136U 22005AJ  23307.38327480  .00003494  00000-0  23747-3 0  9991,2 51136  53.2160 187.7207 0001385  91.5312 268.5839 15.08845661 99301,6917.863,95.437,540.686,538.77,0.0
51136.0,STARLINK-3253,PAYLOAD,2023-11-03 20:19:37,15.0883069,6.94e-05,53.2163,185.638,97.2137,262.8935,-8.032e-05,-1.565e-05,0.0,0 STARLINK-3253,1 51136U 22005AJ  23307.84695830 -.00001565  00000-0 -80320-4 0  9999,2 51136  53.2163 185.6380 0000694  97.2137 262.8935 15.08830690100508,6917.909,95.438,540.254,539.294,0.0
51136.0,STARLINK-3253,PAYLOAD,2023-11-03 21:54:59,15.08856353,0.0002128,53.2158,185.3414,148.2363,211.8758,0.00054599,8.416e-05,0.0,0 STARLINK-3253,1 51136U 22005AJ  23307.91318980  .00008416  00000-0  54599-3 0  9993,2 51136  53.2158 185.3414 0002128 148.2363 211.8758 15.08856353 99383,6917.83,95.437,541.168,538.223,0.0
51136.0,STARLINK-3253,PAYLOAD,2023-11-04 01:05:46,15.08842373,0.0001354,53.2158,184.7467,92.4588,267.6559,0.00026074,3.864e-05,0.0,0 STARLINK-3253,1 51136U 22005AJ  23308.04567688  .00003864  00000-0  26074-3 0  9998,2 51136  53.2158 184.7467 0001354  92.4588 267.6559 15.08842373100538,6917.873,95.437,540.675,538.801,0.0
51136.0,STARLINK-3253,PAYLOAD,2023-11-04 09:02:42,15.08839688,0.0001323,53.216,183.26,90.4438,269.6706,0.00020108,2.914e-05,0.0,0 STARLINK-3253,1 51136U 22005AJ  23308.37687910  .00002914  00000-0  20108-3 0  9992,2 51136  53.2160 183.2600 0001323  90.4438 269.6706 15.08839688 99451,6917.881,95.438,540.662,538.831,0.0
51136.0,STARLINK-3253,PAYLOAD,2023-11-04 21:45:47,15.08842636,0.0001205,53.2165,180.8816,93.7041,266.4089,0.00027274,4.056e-05,0.0,0 STARLINK-3253,1 51136U 22005AJ  23308.90680028  .00004056  00000-0  27274-3 0  9994,2 51136  53.2165 180.8816 0001205  93.7041 266.4089 15.08842636100665,6917.872,95.437,540.571,538.904,0.0
51136.0,STARLINK-3253,PAYLOAD,2023-11-05 00:56:33,15.08854482,0.0001361,53.2162,180.2866,92.4959,267.6189,0.00052291,8.047e-05,0.0,0 STARLINK-3253,1 51136U 22005AJ  23309.03927702  .00008047  00000-0  52291-3 0  9993,2 51136  53.2162 180.2866 0001361  92.4959 267.6189 15.08854482100686,6917.836,95.437,540.643,538.76,0.0
51136.0,STARLINK-3253,PAYLOAD,2023-11-05 08:53:29,15.08851108,0.0001365,53.2163,178.7987,105.2283,254.886,0.00048121,7.381e-05,0.0,0 STARLINK-3253,1 51136U 22005AJ  23309.37047706  .00007381  00000-0  48121-3 0  9994,2 51136  53.2163 178.7987 0001365 105.2283 254.8860 15.08851108100732,6917.846,95.437,540.656,538.767,0.0
51136.0,STARLINK-3253,PAYLOAD,2023-11-05 21:36:33,15.08882583,0.0001385,53.2164,176.4207,101.913,258.2017,0.0012537,0.00019744,0.0,0 STARLINK-3253,1 51136U 22005AJ  23309.90038698  .00019744  00000-0  12537-2 0  9990,2 51136  53.2164 176.4207 0001385 101.9130 258.2017 15.08882583 99683,6917.75,95.435,540.573,538.657,0.0
